STARLINK-4583           
1 53568U 22101AT  26068.26984999 -.00000770  00000+0 -30319-4 0  9996
2 53568  53.2178  55.8781 0001447  93.4026 266.7132 15.08836843197076
YAM-8                   
1 63254U 25052AW  26068.73092778  .00007810  00000+0  47267-3 0  9993
2 63254  97.7023 329.5345 0002369 152.6796 207.4558 15.10898938 54245
